CCSDS_OMM_VERS = 2.0
CREATION_DATE  = 
ORIGINATOR     = 

OBJECT_NAME    = STARLINK-36713
OBJECT_ID      = 2026-025J
CENTER_NAME    = EARTH
REF_FRAME      = TEME
TIME_SYSTEM    = UTC
MEAN_ELEMENT_THEORY = SGP/SGP4

EPOCH          = 2026-02-19T06:00:02.000160
MEAN_MOTION    = 15.91860522
ECCENTRICITY   = .00015445
INCLINATION    = 97.2752
RA_OF_ASC_NODE = 160.8431
ARG_OF_PERICENTER = 64.1821
MEAN_ANOMALY   = 245.7883

EPHEMERIS_TYPE = 0
CLASSIFICATION_TYPE = U
NORAD_CAT_ID   = 67701
ELEMENT_SET_NO = 999
REV_AT_EPOCH   = 304
BSTAR          = -.50591298E-2
MEAN_MOTION_DOT = -.1641381E-1
MEAN_MOTION_DDOT = .75276703E-3

CCSDS_OMM_VERS = 2.0
CREATION_DATE  = 
ORIGINATOR     = 

OBJECT_NAME    = STARLINK-36695
OBJECT_ID      = 2026-025K
CENTER_NAME    = EARTH
REF_FRAME      = TEME
TIME_SYSTEM    = UTC
MEAN_ELEMENT_THEORY = SGP/SGP4

EPOCH          = 2026-02-19T06:00:02.000160
MEAN_MOTION    = 15.92076502
ECCENTRICITY   = .00015372
INCLINATION    = 97.2749
RA_OF_ASC_NODE = 160.8455
ARG_OF_PERICENTER = 62.6113
MEAN_ANOMALY   = 252.7133

EPHEMERIS_TYPE = 0
CLASSIFICATION_TYPE = U
NORAD_CAT_ID   = 67702
ELEMENT_SET_NO = 999
REV_AT_EPOCH   = 288
BSTAR          = -.49769791E-2
MEAN_MOTION_DOT = -.1632816E-1
MEAN_MOTION_DDOT = .74711239E-3

CCSDS_OMM_VERS = 2.0
CREATION_DATE  = 
ORIGINATOR     = 

OBJECT_NAME    = STARLINK-36630
OBJECT_ID      = 2026-025L
CENTER_NAME    = EARTH
REF_FRAME      = TEME
TIME_SYSTEM    = UTC
MEAN_ELEMENT_THEORY = SGP/SGP4

EPOCH          = 2026-02-19T06:00:02.000160
MEAN_MOTION    = 15.92284584
ECCENTRICITY   = .00015097
INCLINATION    = 97.2748
RA_OF_ASC_NODE = 160.8481
ARG_OF_PERICENTER = 55.4072
MEAN_ANOMALY   = 265.0967

EPHEMERIS_TYPE = 0
CLASSIFICATION_TYPE = U
NORAD_CAT_ID   = 67703
ELEMENT_SET_NO = 999
REV_AT_EPOCH   = 288
BSTAR          = -.49286639E-2
MEAN_MOTION_DOT = -.1634338E-1
MEAN_MOTION_DDOT = .74997687E-3

CCSDS_OMM_VERS = 2.0
CREATION_DATE  = 
ORIGINATOR     = 

OBJECT_NAME    = STARLINK-36338
OBJECT_ID      = 2026-025M
CENTER_NAME    = EARTH
REF_FRAME      = TEME
TIME_SYSTEM    = UTC
MEAN_ELEMENT_THEORY = SGP/SGP4

EPOCH          = 2026-02-19T06:00:02.000160
MEAN_MOTION    = 15.92573171
ECCENTRICITY   = .00013162
INCLINATION    = 97.2745
RA_OF_ASC_NODE = 160.8507
ARG_OF_PERICENTER = 69.9084
MEAN_ANOMALY   = 257.4405

EPHEMERIS_TYPE = 0
CLASSIFICATION_TYPE = U
NORAD_CAT_ID   = 67704
ELEMENT_SET_NO = 999
REV_AT_EPOCH   = 293
BSTAR          = -.47908835E-2
MEAN_MOTION_DOT = -.1612677E-1
MEAN_MOTION_DDOT = .73376708E-3

CCSDS_OMM_VERS = 2.0
CREATION_DATE  = 
ORIGINATOR     = 

OBJECT_NAME    = STARLINK-36316
OBJECT_ID      = 2026-025N
CENTER_NAME    = EARTH
REF_FRAME      = TEME
TIME_SYSTEM    = UTC
MEAN_ELEMENT_THEORY = SGP/SGP4

EPOCH          = 2026-02-19T06:00:02.000160
MEAN_MOTION    = 15.93154519
ECCENTRICITY   = .00014539
INCLINATION    = 97.2738
RA_OF_ASC_NODE = 160.8566
ARG_OF_PERICENTER = 62.0665
MEAN_ANOMALY   = 279.0563

EPHEMERIS_TYPE = 0
CLASSIFICATION_TYPE = U
NORAD_CAT_ID   = 67705
ELEMENT_SET_NO = 999
REV_AT_EPOCH   = 293
BSTAR          = -.46191657E-2
MEAN_MOTION_DOT = -.1602584E-1
MEAN_MOTION_DDOT = .72956702E-3

CCSDS_OMM_VERS = 2.0
CREATION_DATE  = 
ORIGINATOR     = 

OBJECT_NAME    = STARLINK-36707
OBJECT_ID      = 2026-025P
CENTER_NAME    = EARTH
REF_FRAME      = TEME
TIME_SYSTEM    = UTC
MEAN_ELEMENT_THEORY = SGP/SGP4

EPOCH          = 2026-02-19T06:00:02.000160
MEAN_MOTION    = 15.93458143
ECCENTRICITY   = .00014875
INCLINATION    = 97.2733
RA_OF_ASC_NODE = 160.8596
ARG_OF_PERICENTER = 65.1291
MEAN_ANOMALY   = 283.1570

EPHEMERIS_TYPE = 0
CLASSIFICATION_TYPE = U
NORAD_CAT_ID   = 67706
ELEMENT_SET_NO = 999
REV_AT_EPOCH   = 272
BSTAR          = -.45177444E-2
MEAN_MOTION_DOT = -.159251E-1
MEAN_MOTION_DDOT = .72332003E-3

CCSDS_OMM_VERS = 2.0
CREATION_DATE  = 
ORIGINATOR     = 

OBJECT_NAME    = STARLINK-36645
OBJECT_ID      = 2026-025Q
CENTER_NAME    = EARTH
REF_FRAME      = TEME
TIME_SYSTEM    = UTC
MEAN_ELEMENT_THEORY = SGP/SGP4

EPOCH          = 2026-02-19T06:00:02.000160
MEAN_MOTION    = 15.92908111
ECCENTRICITY   = .00014622
INCLINATION    = 97.2739
RA_OF_ASC_NODE = 160.8535
ARG_OF_PERICENTER = 65.0210
MEAN_ANOMALY   = 270.2204

EPHEMERIS_TYPE = 0
CLASSIFICATION_TYPE = U
NORAD_CAT_ID   = 67707
ELEMENT_SET_NO = 999
REV_AT_EPOCH   = 249
BSTAR          = -.46983164E-2
MEAN_MOTION_DOT = -.1609244E-1
MEAN_MOTION_DDOT = .73335984E-3

CCSDS_OMM_VERS = 2.0
CREATION_DATE  = 
ORIGINATOR     = 

OBJECT_NAME    = STARLINK-36287
OBJECT_ID      = 2026-025R
CENTER_NAME    = EARTH
REF_FRAME      = TEME
TIME_SYSTEM    = UTC
MEAN_ELEMENT_THEORY = SGP/SGP4

EPOCH          = 2026-02-19T06:00:02.000160
MEAN_MOTION    = 15.93720489
ECCENTRICITY   = .00014638
INCLINATION    = 97.2729
RA_OF_ASC_NODE = 160.8617
ARG_OF_PERICENTER = 61.0993
MEAN_ANOMALY   = 293.3778

EPHEMERIS_TYPE = 0
CLASSIFICATION_TYPE = U
NORAD_CAT_ID   = 67708
ELEMENT_SET_NO = 999
REV_AT_EPOCH   = 304
BSTAR          = -.44394806E-2
MEAN_MOTION_DOT = -.158659E-1
MEAN_MOTION_DDOT = .72027626E-3

CCSDS_OMM_VERS = 2.0
CREATION_DATE  = 
ORIGINATOR     = 

OBJECT_NAME    = STARLINK-36698
OBJECT_ID      = 2026-025S
CENTER_NAME    = EARTH
REF_FRAME      = TEME
TIME_SYSTEM    = UTC
MEAN_ELEMENT_THEORY = SGP/SGP4

EPOCH          = 2026-02-19T06:00:02.000160
MEAN_MOTION    = 15.94735387
ECCENTRICITY   = .00013831
INCLINATION    = 97.2725
RA_OF_ASC_NODE = 160.8719
ARG_OF_PERICENTER = 60.6099
MEAN_ANOMALY   = 317.3922

EPHEMERIS_TYPE = 0
CLASSIFICATION_TYPE = U
NORAD_CAT_ID   = 67709
ELEMENT_SET_NO = 999
REV_AT_EPOCH   = 288
BSTAR          = -.41415634E-2
MEAN_MOTION_DOT = -.1561641E-1
MEAN_MOTION_DDOT = .70678637E-3

CCSDS_OMM_VERS = 2.0
CREATION_DATE  = 
ORIGINATOR     = 

OBJECT_NAME    = STARLINK-36344
OBJECT_ID      = 2026-025T
CENTER_NAME    = EARTH
REF_FRAME      = TEME
TIME_SYSTEM    = UTC
MEAN_ELEMENT_THEORY = SGP/SGP4

EPOCH          = 2026-02-19T06:00:02.000160
MEAN_MOTION    = 15.94108993
ECCENTRICITY   = .00014923
INCLINATION    = 97.2729
RA_OF_ASC_NODE = 160.8658
ARG_OF_PERICENTER = 61.2746
MEAN_ANOMALY   = 302.2080

EPHEMERIS_TYPE = 0
CLASSIFICATION_TYPE = U
NORAD_CAT_ID   = 67710
ELEMENT_SET_NO = 999
REV_AT_EPOCH   = 304
BSTAR          = -.43260546E-2
MEAN_MOTION_DOT = -.1577996E-1
MEAN_MOTION_DDOT = .71591399E-3

CCSDS_OMM_VERS = 2.0
CREATION_DATE  = 
ORIGINATOR     = 

OBJECT_NAME    = STARLINK-36687
OBJECT_ID      = 2026-025U
CENTER_NAME    = EARTH
REF_FRAME      = TEME
TIME_SYSTEM    = UTC
MEAN_ELEMENT_THEORY = SGP/SGP4

EPOCH          = 2026-02-19T06:00:02.000160
MEAN_MOTION    = 15.94401266
ECCENTRICITY   = .00014458
INCLINATION    = 97.2726
RA_OF_ASC_NODE = 160.8687
ARG_OF_PERICENTER = 54.2888
MEAN_ANOMALY   = 315.9795

EPHEMERIS_TYPE = 0
CLASSIFICATION_TYPE = U
NORAD_CAT_ID   = 67711
ELEMENT_SET_NO = 999
REV_AT_EPOCH   = 304
BSTAR          = -.42345558E-2
MEAN_MOTION_DOT = -.1568681E-1
MEAN_MOTION_DDOT = .71023995E-3

CCSDS_OMM_VERS = 2.0
CREATION_DATE  = 
ORIGINATOR     = 

OBJECT_NAME    = STARLINK-36705
OBJECT_ID      = 2026-025V
CENTER_NAME    = EARTH
REF_FRAME      = TEME
TIME_SYSTEM    = UTC
MEAN_ELEMENT_THEORY = SGP/SGP4

EPOCH          = 2026-02-19T06:00:02.000160
MEAN_MOTION    = 15.95082320
ECCENTRICITY   = .00015859
INCLINATION    = 97.2720
RA_OF_ASC_NODE = 160.8747
ARG_OF_PERICENTER = 56.3896
MEAN_ANOMALY   = 329.6589

EPHEMERIS_TYPE = 0
CLASSIFICATION_TYPE = U
NORAD_CAT_ID   = 67712
ELEMENT_SET_NO = 999
REV_AT_EPOCH   = 294
BSTAR          = -.4029278E-2
MEAN_MOTION_DOT = -.1547746E-1
MEAN_MOTION_DDOT = .69768954E-3

CCSDS_OMM_VERS = 2.0
CREATION_DATE  = 
ORIGINATOR     = 

OBJECT_NAME    = STARLINK-36708
OBJECT_ID      = 2026-025W
CENTER_NAME    = EARTH
REF_FRAME      = TEME
TIME_SYSTEM    = UTC
MEAN_ELEMENT_THEORY = SGP/SGP4

EPOCH          = 2026-02-19T06:00:02.000160
MEAN_MOTION    = 15.95903272
ECCENTRICITY   = .00015824
INCLINATION    = 97.2725
RA_OF_ASC_NODE = 160.8830
ARG_OF_PERICENTER = 59.2760
MEAN_ANOMALY   = 345.9552

EPHEMERIS_TYPE = 0
CLASSIFICATION_TYPE = U
NORAD_CAT_ID   = 67713
ELEMENT_SET_NO = 999
REV_AT_EPOCH   = 294
BSTAR          = -.37734653E-2
MEAN_MOTION_DOT = -.1514874E-1
MEAN_MOTION_DDOT = .67627519E-3

CCSDS_OMM_VERS = 2.0
CREATION_DATE  = 
ORIGINATOR     = 

OBJECT_NAME    = STARLINK-36702
OBJECT_ID      = 2026-025X
CENTER_NAME    = EARTH
REF_FRAME      = TEME
TIME_SYSTEM    = UTC
MEAN_ELEMENT_THEORY = SGP/SGP4

EPOCH          = 2026-02-19T06:00:02.000160
MEAN_MOTION    = 15.95656892
ECCENTRICITY   = .00016047
INCLINATION    = 97.2722
RA_OF_ASC_NODE = 160.8806
ARG_OF_PERICENTER = 55.7115
MEAN_ANOMALY   = 343.7276

EPHEMERIS_TYPE = 0
CLASSIFICATION_TYPE = U
NORAD_CAT_ID   = 67714
ELEMENT_SET_NO = 999
REV_AT_EPOCH   = 267
BSTAR          = -.38590061E-2
MEAN_MOTION_DOT = -.1528724E-1
MEAN_MOTION_DDOT = .68599822E-3

CCSDS_OMM_VERS = 2.0
CREATION_DATE  = 
ORIGINATOR     = 

OBJECT_NAME    = STARLINK-36718
OBJECT_ID      = 2026-025Y
CENTER_NAME    = EARTH
REF_FRAME      = TEME
TIME_SYSTEM    = UTC
MEAN_ELEMENT_THEORY = SGP/SGP4

EPOCH          = 2026-02-19T06:00:02.000160
MEAN_MOTION    = 15.96496041
ECCENTRICITY   = .00013918
INCLINATION    = 97.2730
RA_OF_ASC_NODE = 160.8895
ARG_OF_PERICENTER = 63.9637
MEAN_ANOMALY   = 354.9929

EPHEMERIS_TYPE = 0
CLASSIFICATION_TYPE = U
NORAD_CAT_ID   = 67715
ELEMENT_SET_NO = 999
REV_AT_EPOCH   = 288
BSTAR          = -.36162044E-2
MEAN_MOTION_DOT = -.1499014E-1
MEAN_MOTION_DDOT = .66739241E-3

